{"type": "FeatureCollection", "features": [ {"type": "Feature", "properties": {"norad_id": 39574, "name": "GPM-CORE", "group": "resource", "lat": -36.58689903112806, "lon": -160.05114122147234, "alt_km": 430.63708504479655, "timestamp": "2025-12-10T11:33:53.048274+00:00", "meta": {"OBJECT_NAME": "GPM-CORE", "OBJECT_ID": "2014-009C", "EPOCH": "2025-12-10T03:58:37.178976", "MEAN_MOTION": 15.45471524, "ECCENTRICITY": 0.0010511, "INCLINATION": 64.9736, "RA_OF_ASC_NODE": 221.3008, "ARG_OF_PERICENTER": 270.154, "MEAN_ANOMALY": 89.8396, "EPHEMERIS_TYPE": 0, "CLASSIFICATION_TYPE": "U", "NORAD_CAT_ID": 39574, "ELEMENT_SET_NO": 999, "REV_AT_EPOCH": 66861, "BSTAR": 0.00039379, "MEAN_MOTION_DOT": 0.00018808, "MEAN_MOTION_DDOT": 0}, "tle": {"line1": "1 39574U 14009C   25344.16570809  .00018808  00000+0  39379-3 0  9994", "line2": "2 39574  64.9736 221.3008 0010511 270.1540  89.8396 15.45471524668616"}}, "geometry": {"type": "Point", "coordinates": [-160.05114122147234, -36.58689903112806]}}, {"type": "Feature", "properties": {"norad_id": 39634, "name": "SENTINEL-1A", "group": "resource", "lat": 29.449364812249645, "lon": 174.41471237362995, "alt_km": 693.9525612167017, "timestamp": "2025-12-10T11:33:53.048289+00:00", "meta": {"OBJECT_NAME": "SENTINEL-1A", "OBJECT_ID": "2014-016A", "EPOCH": "2025-12-10T04:17:46.717152", "MEAN_MOTION": 14.59201121, "ECCENTRICITY": 0.0001266, "INCLINATION": 98.1802, "RA_OF_ASC_NODE": 349.4579, "ARG_OF_PERICENTER": 84.5266, "MEAN_ANOMALY": 275.6078, "EPHEMERIS_TYPE": 0, "CLASSIFICATION_TYPE": "U", "NORAD_CAT_ID": 39634, "ELEMENT_SET_NO": 999, "REV_AT_EPOCH": 62245, "BSTAR": 7.8512e-05, "MEAN_MOTION_DOT": 3.24e-06, "MEAN_MOTION_DDOT": 0}, "tle": {"line1": "1 39634U 14016A   25344.17901293  .00000324  00000+0  78512-4 0  9992", "line2": "2 39634  98.1802 349.4579 0001266  84.5266 275.6078 14.59201121622452"}}, "geometry": {"type": "Point", "coordinates": [174.41471237362995, 29.449364812249645]}}, {"type": "Feature", "properties": {"norad_id": 39731, "name": "KAZEOSAT 1", "group": "resource", "lat": -79.56413188469388, "lon": -176.383752939897, "alt_km": 759.7935524317227, "timestamp": "2025-12-10T11:33:53.048299+00:00", "meta": {"OBJECT_NAME": "KAZEOSAT 1", "OBJECT_ID": "2014-024A", "EPOCH": "2025-12-10T05:20:59.238240", "MEAN_MOTION": 14.42060311, "ECCENTRICITY": 0.0001085, "INCLINATION": 98.3433, "RA_OF_ASC_NODE": 56.1865, "ARG_OF_PERICENTER": 95.2093, "MEAN_ANOMALY": 264.9221, "EPHEMERIS_TYPE": 0, "CLASSIFICATION_TYPE": "U", "NORAD_CAT_ID": 39731, "ELEMENT_SET_NO": 999, "REV_AT_EPOCH": 61132, "BSTAR": 0.00012379, "MEAN_MOTION_DOT": 3.64e-06, "MEAN_MOTION_DDOT": 0}, "tle": {"line1": "1 39731U 14024A   25344.22290785  .00000364  00000+0  12379-3 0  9994", "line2": "2 39731  98.3433  56.1865 0001085  95.2093 264.9221 14.42060311611329"}}, "geometry": {"type": "Point", "coordinates": [-176.383752939897, -79.56413188469388]}}, {"type": "Feature", "properties": {"norad_id": 39766, "name": "ALOS-2", "group": "resource", "lat": -24.16881159556767, "lon": -104.22316431464617, "alt_km": 636.8414564737577, "timestamp": "2025-12-10T11:33:53.048309+00:00", "meta": {"OBJECT_NAME": "ALOS-2", "OBJECT_ID": "2014-029A", "EPOCH": "2025-12-10T05:46:28.869024", "MEAN_MOTION": 14.79467364, "ECCENTRICITY": 0.0001488, "INCLINATION": 97.9228, "RA_OF_ASC_NODE": 79.1221, "ARG_OF_PERICENTER": 99.2878, "MEAN_ANOMALY": 260.8502, "EPHEMERIS_TYPE": 0, "CLASSIFICATION_TYPE": "U", "NORAD_CAT_ID": 39766, "ELEMENT_SET_NO": 999, "REV_AT_EPOCH": 62364, "BSTAR": 0.00055008, "MEAN_MOTION_DOT": 4.058e-05, "MEAN_MOTION_DDOT": 0}, "tle": {"line1": "1 39766U 14029A   25344.24061191  .00004058  00000+0  55008-3 0  9996", "line2": "2 39766  97.9228  79.1221 0001488  99.2878 260.8502 14.79467364623641"}}, "geometry": {"type": "Point", "coordinates": [-104.22316431464617, -24.16881159556767]}}, {"type": "Feature", "properties": {"norad_id": 40010, "name": "KAZEOSAT 2", "group": "resource", "lat": 66.93222098927332, "lon": 170.76641631513118, "alt_km": 610.96959229596, "timestamp": "2025-12-10T11:33:53.048319+00:00", "meta": {"OBJECT_NAME": "KAZEOSAT 2", "OBJECT_ID": "2014-033A", "EPOCH": "2025-12-10T04:47:26.392128", "MEAN_MOTION": 14.85161531, "ECCENTRICITY": 0.0007521, "INCLINATION": 97.5502, "RA_OF_ASC_NODE": 188.6449, "ARG_OF_PERICENTER": 215.9153, "MEAN_ANOMALY": 144.1558, "EPHEMERIS_TYPE": 0, "CLASSIFICATION_TYPE": "U", "NORAD_CAT_ID": 40010, "ELEMENT_SET_NO": 999, "REV_AT_EPOCH": 62090, "BSTAR": 0.00016871, "MEAN_MOTION_DOT": 1.395e-05, "MEAN_MOTION_DDOT": 0}, "tle": {"line1": "1 40010U 14033A   25344.19961102  .00001395  00000+0  16871-3 0  9996", "line2": "2 40010  97.5502 188.6449 0007521 215.9153 144.1558 14.85161531620906"}}, "geometry": {"type": "Point", "coordinates": [170.76641631513118, 66.93222098927332]}}, {"type": "Feature", "properties": {"norad_id": 40011, "name": "HODOYOSHI-4", "group": "resource", "lat": 42.46785071533335, "lon": 0.44160691905819904, "alt_km": 597.295698706791, "timestamp": "2025-12-10T11:33:53.048329+00:00", "meta": {"OBJECT_NAME": "HODOYOSHI-4", "OBJECT_ID": "2014-033B", "EPOCH": "2025-12-10T04:29:28.627296", "MEAN_MOTION": 14.87462316, "ECCENTRICITY": 0.0023013, "INCLINATION": 97.5412, "RA_OF_ASC_NODE": 173.1971, "ARG_OF_PERICENTER": 209.4948, "MEAN_ANOMALY": 150.4972, "EPHEMERIS_TYPE": 0, "CLASSIFICATION_TYPE": "U", "NORAD_CAT_ID": 40011, "ELEMENT_SET_NO": 999, "REV_AT_EPOCH": 62070, "BSTAR": 0.00011526, "MEAN_MOTION_DOT": 9.96e-06, "MEAN_MOTION_DDOT": 0}, "tle": {"line1": "1 40011U 14033B   25344.18713689  .00000996  00000+0  11526-3 0  9999", "line2": "2 40011  97.5412 173.1971 0023013 209.4948 150.4972 14.87462316620705"}}, "geometry": {"type": "Point", "coordinates": [0.44160691905819904, 42.46785071533335]}}, {"type": "Feature", "properties": {"norad_id": 40013, "name": "DEIMOS-2", "group": "resource", "lat": -68.61952411053396, "lon": 20.399130187854514, "alt_km": 596.6713014560737, "timestamp": "2025-12-10T11:33:53.048339+00:00", "meta": {"OBJECT_NAME": "DEIMOS-2", "OBJECT_ID": "2014-033D", "EPOCH": "2025-12-10T04:00:52.187616", "MEAN_MOTION": 14.92956197, "ECCENTRICITY": 0.0001004, "INCLINATION": 97.6063, "RA_OF_ASC_NODE": 220.0529, "ARG_OF_PERICENTER": 86.9475, "MEAN_ANOMALY": 273.186, "EPHEMERIS_TYPE": 0, "CLASSIFICATION_TYPE": "U", "NORAD_CAT_ID": 40013, "ELEMENT_SET_NO": 999, "REV_AT_EPOCH": 60951, "BSTAR": 0.00030954, "MEAN_MOTION_DOT": 3.16e-05, "MEAN_MOTION_DDOT": 0}, "tle": {"line1": "1 40013U 14033D   25344.16727069  .00003160  00000+0  30954-3 0  9998", "line2": "2 40013  97.6063 220.0529 0001004  86.9475 273.1860 14.92956197609516"}}, "geometry": {"type": "Point", "coordinates": [20.399130187854514, -68.61952411053396]}}, {"type": "Feature", "properties": {"norad_id": 40015, "name": "HODOYOSHI-3", "group": "resource", "lat": 80.46719975067093, "lon": 97.55177561411375, "alt_km": 628.8397849380235, "timestamp": "2025-12-10T11:33:53.048349+00:00", "meta": {"OBJECT_NAME": "HODOYOSHI-3", "OBJECT_ID": "2014-033F", "EPOCH": "2025-12-10T01:28:49.908000", "MEAN_MOTION": 14.84792375, "ECCENTRICITY": 0.0031825, "INCLINATION": 97.62, "RA_OF_ASC_NODE": 150.0133, "ARG_OF_PERICENTER": 257.1175, "MEAN_ANOMALY": 102.6485, "EPHEMERIS_TYPE": 0, "CLASSIFICATION_TYPE": "U", "NORAD_CAT_ID": 40015, "ELEMENT_SET_NO": 999, "REV_AT_EPOCH": 61955, "BSTAR": 0.00031145, "MEAN_MOTION_DOT": 2.614e-05, "MEAN_MOTION_DDOT": 0}, "tle": {"line1": "1 40015U 14033F   25344.06168875  .00002614  00000+0  31145-3 0  9999", "line2": "2 40015  97.6200 150.0133 0031825 257.1175 102.6485 14.84792375619558"}}, "geometry": {"type": "Point", "coordinates": [97.55177561411375, 80.46719975067093]}}, {"type": "Feature", "properties": {"norad_id": 40053, "name": "SPOT 7", "group": "resource", "lat": 2.1807296364614754, "lon": 46.29891866148184, "alt_km": 693.455943088582, "timestamp": "2025-12-10T11:33:53.048359+00:00", "meta": {"OBJECT_NAME": "SPOT 7", "OBJECT_ID": "2014-034A", "EPOCH": "2025-12-10T04:58:43.324032", "MEAN_MOTION": 14.60728264, "ECCENTRICITY": 0.0001558, "INCLINATION": 98.0905, "RA_OF_ASC_NODE": 46.3412, "ARG_OF_PERICENTER": 89.7309, "MEAN_ANOMALY": 270.4071, "EPHEMERIS_TYPE": 0, "CLASSIFICATION_TYPE": "U", "NORAD_CAT_ID": 40053, "ELEMENT_SET_NO": 999, "REV_AT_EPOCH": 60954, "BSTAR": 0.0001544, "MEAN_MOTION_DOT": 7.07e-06, "MEAN_MOTION_DDOT": 0}, "tle": {"line1": "1 40053U 14034A   25344.20744588  .00000707  00000+0  15440-3 0  9990", "line2": "2 40053  98.0905  46.3412 0001558  89.7309 270.4071 14.60728264609545"}}, "geometry": {"type": "Point", "coordinates": [46.29891866148184, 2.1807296364614754]}}, {"type": "Feature", "properties": {"norad_id": 40072, "name": "SKYSAT-B", "group": "resource", "lat": 77.9979527395523, "lon": -115.70254159868914, "alt_km": 597.9766298127252, "timestamp": "2025-12-10T11:33:53.048369+00:00", "meta": {"OBJECT_NAME": "SKYSAT-B", "OBJECT_ID": "2014-037D", "EPOCH": "2025-12-09T19:03:13.836960", "MEAN_MOTION": 14.87310727, "ECCENTRICITY": 0.0005909, "INCLINATION": 98.3608, "RA_OF_ASC_NODE": 287.3443, "ARG_OF_PERICENTER": 159.0693, "MEAN_ANOMALY": 201.0764, "EPHEMERIS_TYPE": 0, "CLASSIFICATION_TYPE": "U", "NORAD_CAT_ID": 40072, "ELEMENT_SET_NO": 999, "REV_AT_EPOCH": 61780, "BSTAR": 0.00038192, "MEAN_MOTION_DOT": 3.387e-05, "MEAN_MOTION_DDOT": 0}, "tle": {"line1": "1 40072U 14037D   25343.79391015  .00003387  00000+0  38192-3 0  9996", "line2": "2 40072  98.3608 287.3443 0005909 159.0693 201.0764 14.87310727617808"}}, "geometry": {"type": "Point", "coordinates": [-115.70254159868914, 77.9979527395523]}}]}